0 FENGYUN 1C DEB
1 36987U 99025EBT 13281.35348561  .00000259  00000-0  39680-3 0  1704
2 36987 100.8661 119.4674 0327709 112.7055 250.9066 13.42424675201041
0 FENGYUN 1C DEB
1 36987U 99025EBT 13283.51482891  .00000260  00000-0  39754-3 0  1714
2 36987 100.8675 121.7962 0327726 107.6978 256.0278 13.42426026201334
0 FENGYUN 1C DEB
1 36987U 99025EBT 13285.75069155  .00000265  00000-0  40465-3 0  1723
2 36987 100.8667 124.2017 0327484 102.3810 261.4218 13.42427647201639
0 FENGYUN 1C DEB
1 36987U 99025EBT 13287.76295971  .00000270  00000-0  41026-3 0  1734
2 36987 100.8668 126.3705 0327438 097.5998 266.2448 13.42429088201907
0 FENGYUN 1C DEB
1 36987U 99025EBT 13290.74408548  .00000274  00000-0  41583-3 0  1745
2 36987 100.8662 129.5803 0327572 090.6387 273.2320 13.42431183202301
0 FENGYUN 1C DEB
1 36987U 99025EBT 13293.42708285  .00000281  00000-0  42397-3 0  1757
2 36987 100.8669 132.4714 0327990 084.3996 279.4465 13.42433217202669
